STARLINK-1270           
1 45237U 20012BM  22038.83280793 -.00000126  00000+0  10455-4 0  9999
2 45237  53.0543 219.3493 0001688  75.2547 284.8629 15.06402752110695
JCSAT-17                
1 45245U 20013A   22038.19901572 -.00000314  00000+0  00000+0 0  9992
2 45245   6.2796 344.8358 0004389 335.8328  24.2440  1.00272363  7280
GEO-KOMPSAT-2B          
1 45246U 20013B   22039.07618859 -.00000343  00000+0  00000+0 0  9996
2 45246   0.0464 267.9628 0002156  19.8964   5.9558  1.00272220  7306
XJS C                   
1 45249U 20014A   22038.87347308  .00010253  00000+0  32139-3 0  9997
2 45249  35.0126 194.5752 0008747 331.6515  28.3727 15.32242569110163
XJS D                   
1 45250U 20014B   22039.13760824  .00010331  00000+0  32516-3 0  9997
2 45250  35.0132 192.9758 0008176 320.9503  39.0624 15.32116730110204
XJS E                   
1 45251U 20014C   22038.87267116  .00008521  00000+0  26801-3 0  9992
2 45251  35.0139 194.6078 0005365   8.5912 351.4897 15.32191411110129
XJS F                   
1 45253U 20014E   22039.13690624  .00008097  00000+0  25516-3 0  9998
2 45253  35.0125 192.9272 0007117 330.0932  29.9378 15.32130654110162
MERIDIAN 9              
1 45254U 20015A   22037.91691502  .00000265  00000+0  00000+0 0  9996
2 45254  63.0857 139.0379 6895420 294.2521  72.1532  2.00600185 14391
HARP                    
1 45256U 98067QZ  22038.85508772  .00069351  00000+0  41692-3 0  9997
2 45256  51.6385 213.1974 0001197  55.9623 304.1491 15.77085919112140
1998-067RA              
1 45257U 98067RA  22039.02399379  .00077314  00000+0  58927-3 0  9996
2 45257  51.6324 217.9134 0002915  89.8893 270.2439 15.71538943112091
PHOENIX                 
1 45258U 98067RB  22038.84742217  .00055002  00000+0  50604-3 0  9993
2 45258  51.6346 224.2690 0002885  61.3538 298.7748 15.67112663111966
1998-067RC              
1 45259U 98067RC  22038.31215922  .11340002  12518-4  59706-3 0  9997
2 45259  51.6082 197.0775 0006010 301.4076  58.6363 16.42437998112304
RADSAT-U                
1 45262U 98067RF  22039.18815391  .00082786  00000+0  59312-3 0  9994
2 45262  51.6385 215.4301 0002545 142.1103 218.0075 15.72973934112156
QARMAN                  
1 45263U 98067RG  22036.53229310  .15337201  12572-4  33864-3 0  9998
2 45263  51.6115 206.9643 0005832 268.7113  91.3248 16.46296888112040
SORTIE                  
1 45264U 98067RH  22039.10653355  .00028204  00000+0  31909-3 0  9995
2 45264  51.6382 230.6155 0005411  80.0839 280.0766 15.62192328111932
BEIDOU-3 G2             
1 45344U 20017A   22038.84950080 -.00000139  00000+0  00000+0 0  9991
2 45344   2.1657 345.9080 0001325  51.6528 126.2082  1.00272560  7315
COSMOS 2545 [GLONASS-M] 
1 45358U 20018A   22038.58169300 -.00000068  00000+0  00000+0 0  9996
2 45358  64.9220   7.7973 0010862 257.9608 216.3835  2.13102678 14763
STARLINK-1279           
1 45360U 20019A   22039.12308845  .00001091  00000+0  92155-4 0  9993
2 45360  53.0563 348.0318 0001611  63.3755 296.7399 15.06382536105478
STARLINK-1301           
1 45361U 20019B   22038.91204257  .00003175  00000+0  23195-3 0  9994
2 45361  53.0562 358.9787 0001440  74.6797 285.4351 15.06398507105310
STARLINK-1306           
1 45362U 20019C   22039.22351886  .00004159  00000+0  29791-3 0  9992
2 45362  53.0552  17.5790 0001482  63.4606 296.6535 15.06400683105084
STARLINK-1313           
1 45364U 20019E   22039.11940060  .00001902  00000+0  14657-3 0  9998
2 45364  53.0553 348.0530 0001713  65.7880 294.3288 15.06391377105479
STARLINK-1317           
1 45365U 20019F   22039.19005424 -.00001777  00000+0 -10276-3 0  9998
2 45365  53.0013 357.7485 0001556  66.1011 294.0140 15.05587574105315
STARLINK-1262           
1 45366U 20019G   22038.94339681  .00003128  00000+0  22890-3 0  9991
2 45366  53.0550  18.8303 0001411  70.1626 289.9515 15.06386878105047
STARLINK-1273           
1 45367U 20019H   22039.23091031  .00010580  00000+0  72828-3 0  9995
2 45367  53.0558  17.5605 0001527  68.4470 291.6681 15.06392009105083
STARLINK-1276           
1 45368U 20019J   22039.20140601 -.00000886  00000+0 -40614-4 0  9990
2 45368  53.0549  17.6721 0001532  92.2807 267.8357 15.06396102105082
STARLINK-1277           
1 45369U 20019K   22038.66967290  .00003952  00000+0  28414-3 0  9999
2 45369  53.0558  20.0761 0001677  65.5703 294.5461 15.06385394105009
STARLINK-1281           
1 45370U 20019L   22039.19033837 -.00000637  00000+0 -23875-4 0  9997
2 45370  53.0577  17.7255 0001678  74.4481 285.6693 15.06390727105055
STARLINK-1287           
1 45371U 20019M   22039.21984645  .00000384  00000+0  44680-4 0  9997
2 45371  53.0565  17.5929 0001555  74.3151 285.8010 15.06385128105083
STARLINK-1288           
1 45372U 20019N   22039.23458226  .00000323  00000+0  40584-4 0  9993
2 45372  53.0561  17.5409 0001513  66.1841 293.9306 15.06391458105083
STARLINK-1295           
1 45373U 20019P   22039.21616437  .00001156  00000+0  96515-4 0  9992
2 45373  53.0547  17.6126 0001557  77.8349 282.2814 15.06380150105087
STARLINK-1300           
1 45374U 20019Q   22038.68169946  .00010707  00000+0  73666-3 0  9994
2 45374  53.0545  20.0136 0001642  87.8432 272.2745 15.06396585105007
STARLINK-1302           
1 45375U 20019R   22038.82913059  .00000150  00000+0  28960-4 0  9992
2 45375  53.0557  19.3630 0001474  68.1037 292.0108 15.06379418105028
STARLINK-1304           
1 45376U 20019S   22039.17929620 -.00000057  00000+0  15051-4 0  9997
2 45376  53.0563  17.7881 0001648  69.8155 290.3012 15.06389578105076
STARLINK-1305           
1 45377U 20019T   22039.20508669  .00004387  00000+0  31326-3 0  9999
2 45377  53.0543  17.6591 0001556  61.2496 298.8649 15.06399599105088
STARLINK-1310           
1 45378U 20019U   22039.19403071  .00002380  00000+0  17864-3 0  9991
2 45378  53.0564  17.7248 0001473  75.3130 284.8022 15.06394224105081
STARLINK-1319           
1 45379U 20019V   22038.66695644 -.00000553  00000+0 -18251-4 0  9996
2 45379  53.0554  20.0798 0001435  69.4952 290.6190 15.06374655105001
STARLINK-1207           
1 45380U 20019W   22038.59876362 -.00000122  00000+0  10739-4 0  9992
2 45380  53.0547   0.3836 0001652  58.5328 301.5822 15.06379897105261
STARLINK-1258           
1 45381U 20019X   22039.14059935  .00000012  00000+0  19675-4 0  9999
2 45381  53.0551 357.9444 0001417  81.0994 279.0155 15.06385750105344
STARLINK-1264           
1 45382U 20019Y   22039.18482369  .00000681  00000+0  64622-4 0  9999
2 45382  53.0567 357.7678 0001446  88.3349 271.7806 15.06386970105173
STARLINK-1266           
1 45383U 20019Z   22039.19955777  .00005352  00000+0  37787-3 0  9990
2 45383  53.0561 357.6843 0001447  76.2291 283.8859 15.06402171105358
STARLINK-1267           
1 45384U 20019AA  22038.85678572  .00000314  00000+0  40001-4 0  9995
2 45384  53.0570 359.2249 0001580  68.7174 291.3983 15.06372612105304
STARLINK-1272           
1 45386U 20019AC  22039.19220368  .00000474  00000+0  50726-4 0  9993
2 45386  53.0561 357.7303 0001606  72.9004 287.2160 15.06383888105362
STARLINK-1274           
1 45387U 20019AD  22039.14795740  .00000483  00000+0  51317-4 0  9997
2 45387  53.0558 357.9212 0001546  74.6081 285.5079 15.06399712105326
STARLINK-1280           
1 45388U 20019AE  22038.91760498  .00000628  00000+0  61065-4 0  9996
2 45388  53.0556  18.9494 0001639  69.2417 290.8747 15.06387293105026
STARLINK-1283           
1 45389U 20019AF  22039.16269237  .00003671  00000+0  26528-3 0  9995
2 45389  53.0568 357.8451 0001550  55.0890 305.0244 15.06393508105351
STARLINK-1284           
1 45390U 20019AG  22039.20325801  .00003382  00000+0  24590-3 0  9998
2 45390  53.0539 357.6855 0001794  53.3051 306.8102 15.06391132105350
STARLINK-1289           
1 45391U 20019AH  22038.62087400 -.00000706  00000+0 -28537-4 0  9999
2 45391  53.0562   0.2906 0001405  84.8178 275.2971 15.06377584104990
STARLINK-1290           
1 45392U 20019AJ  22038.89919089  .00013541  00000+0  85336-3 0  9994
2 45392  52.9954 353.5411 0001181  46.2382 313.8706 15.09428071105075
STARLINK-1291           
1 45393U 20019AK  22039.18112320  .00001833  00000+0  14193-3 0  9995
2 45393  53.0556 357.7722 0001624  61.1932 298.9219 15.06393133105110
STARLINK-1292           
1 45394U 20019AL  22038.61350122 -.00000192  00000+0  60395-5 0  9992
2 45394  53.0560   0.3247 0001568  84.3246 275.7922 15.06395679105000
STARLINK-1297           
1 45395U 20019AM  22039.17376953  .00000335  00000+0  41421-4 0  9991
2 45395  53.0563 357.8152 0001526  78.5252 281.5908 15.06385521105111
STARLINK-1303           
1 45396U 20019AN  22039.15533350  .00006859  00000+0  47890-3 0  9998
2 45396  53.0549 357.8845 0001560  82.0865 278.0301 15.06400923105069
STARLINK-1307           
1 45397U 20019AP  22039.23274466  .00004403  00000+0  31442-3 0  9997
2 45397  53.0544 357.5352 0001383  72.8551 287.2589 15.06387716105184
STARLINK-1312           
1 45398U 20019AQ  22039.15901565  .00001237  00000+0  10199-3 0  9994
2 45398  53.0555 357.8633 0001579  79.1563 280.9603 15.06388099105106
STARLINK-1255           
1 45399U 20019AR  22038.86874596  .00000053  00000+0  22456-4 0  9990
2 45399  53.0551 349.1693 0001584  55.8822 304.2317 15.06388315105257
STARLINK-1213           
1 45400U 20019AS  22038.55175012 -.00000883  00000+0 -40414-4 0  9993
2 45400  53.0566 350.6102 0001681  56.0974 304.0175 15.06392047105131
STARLINK-1256           
1 45401U 20019AT  22038.28269898 -.00003955  00000+0 -24683-3 0  9992
2 45401  53.0566 351.8076 0001660  61.4763 298.6393 15.06384972105169
STARLINK-1257           
1 45402U 20019AU  22039.14151183  .00001583  00000+0  12516-3 0  9991
2 45402  53.0561 347.9454 0001579  75.9644 284.1520 15.06387083105290
STARLINK-1259           
1 45403U 20019AV  22038.82450493  .00002035  00000+0  15547-3 0  9992
2 45403  53.0555 349.3816 0001322  65.6007 294.5120 15.06393468105247
